{"fetched_at":"2026-07-15T06:35:30.786Z","source":"https://celestrak.org/NORAD/elements/gp.php?GROUP=kuiper&FORMAT=JSON","constellation":"kuiper","records":[{"OBJECT_NAME":"KUIPER-00517","OBJECT_ID":"2026-140J","EPOCH":"2026-07-14T12:51:16.543296","CLASSIFICATION_TYPE":"U","MEAN_MOTION":15.38821702,"ECCENTRICITY":0.0010479,"INCLINATION":51.878,"RA_OF_ASC_NODE":266.2703,"ARG_OF_PERICENTER":289.7075,"MEAN_ANOMALY":70.2782,"EPHEMERIS_TYPE":0,"NORAD_CAT_ID":69600,"ELEMENT_SET_NO":999,"REV_AT_EPOCH":544,"BSTAR":0.00044436,"MEAN_MOTION_DOT":0.00016998,"MEAN_MOTION_DDOT":0},{"OBJECT_NAME":"KUIPER-00520","OBJECT_ID":"2026-140K","EPOCH":"2026-07-14T13:25:39.099648","CLASSIFICATION_TYPE":"U","MEAN_MOTION":15.37636953,"ECCENTRICITY":0.000685,"INCLINATION":51.8804,"RA_OF_ASC_NODE":266.4353,"ARG_OF_PERICENTER":353.5232,"MEAN_ANOMALY":6.5665,"EPHEMERIS_TYPE":0,"NORAD_CAT_ID":69601,"ELEMENT_SET_NO":999,"REV_AT_EPOCH":544,"BSTAR":0.00021391,"MEAN_MOTION_DOT":0.00007645,"MEAN_MOTION_DDOT":0},{"OBJECT_NAME":"KUIPER-00522","OBJECT_ID":"2026-140L","EPOCH":"2026-07-14T09:39:27.179424","CLASSIFICATION_TYPE":"U","MEAN_MOTION":15.38654927,"ECCENTRICITY":0.00135335,"INCLINATION":51.8766,"RA_OF_ASC_NODE":266.8758,"ARG_OF_PERICENTER":262.0154,"MEAN_ANOMALY":97.9298,"EPHEMERIS_TYPE":0,"NORAD_CAT_ID":69602,"ELEMENT_SET_NO":999,"REV_AT_EPOCH":542,"BSTAR":0.00058783788,"MEAN_MOTION_DOT":0.00022536,"MEAN_MOTION_DDOT":0},{"OBJECT_NAME":"KUIPER-00528","OBJECT_ID":"2026-140M","EPOCH":"2026-07-14T13:29:25.971360","CLASSIFICATION_TYPE":"U","MEAN_MOTION":15.37486448,"ECCENTRICITY":0.0005814,"INCLINATION":51.8773,"RA_OF_ASC_NODE":266.4415,"ARG_OF_PERICENTER":0.179,"MEAN_ANOMALY":359.9198,"EPHEMERIS_TYPE":0,"NORAD_CAT_ID":69603,"ELEMENT_SET_NO":999,"REV_AT_EPOCH":544,"BSTAR":0.00021453,"MEAN_MOTION_DOT":0.00007629,"MEAN_MOTION_DDOT":0},{"OBJECT_NAME":"KUIPER-00532","OBJECT_ID":"2026-140N","EPOCH":"2026-07-14T12:11:28.277088","CLASSIFICATION_TYPE":"U","MEAN_MOTION":15.36556816,"ECCENTRICITY":0.0005222,"INCLINATION":51.8782,"RA_OF_ASC_NODE":266.8264,"ARG_OF_PERICENTER":33.7129,"MEAN_ANOMALY":326.4188,"EPHEMERIS_TYPE":0,"NORAD_CAT_ID":69604,"ELEMENT_SET_NO":999,"REV_AT_EPOCH":543,"BSTAR":0.00038579,"MEAN_MOTION_DOT":0.00013621,"MEAN_MOTION_DDOT":0},{"OBJECT_NAME":"KUIPER-00533","OBJECT_ID":"2026-140P","EPOCH":"2026-07-14T13:07:06.575232","CLASSIFICATION_TYPE":"U","MEAN_MOTION":15.38270266,"ECCENTRICITY":0.0008033,"INCLINATION":51.8782,"RA_OF_ASC_NODE":266.3406,"ARG_OF_PERICENTER":324.8783,"MEAN_ANOMALY":35.1674,"EPHEMERIS_TYPE":0,"NORAD_CAT_ID":69605,"ELEMENT_SET_NO":999,"REV_AT_EPOCH":544,"BSTAR":0.00045335,"MEAN_MOTION_DOT":0.00017024,"MEAN_MOTION_DDOT":0},{"OBJECT_NAME":"KUIPER-00534","OBJECT_ID":"2026-140Q","EPOCH":"2026-07-14T09:32:09.358656","CLASSIFICATION_TYPE":"U","MEAN_MOTION":15.38718731,"ECCENTRICITY":0.00134156,"INCLINATION":51.8808,"RA_OF_ASC_NODE":266.8511,"ARG_OF_PERICENTER":262.9424,"MEAN_ANOMALY":97.0038,"EPHEMERIS_TYPE":0,"NORAD_CAT_ID":69606,"ELEMENT_SET_NO":999,"REV_AT_EPOCH":542,"BSTAR":0.00047664954,"MEAN_MOTION_DOT":0.00018224,"MEAN_MOTION_DDOT":0},{"OBJECT_NAME":"KUIPER-00537","OBJECT_ID":"2026-140R","EPOCH":"2026-07-14T12:44:42.344160","CLASSIFICATION_TYPE":"U","MEAN_MOTION":15.34144712,"ECCENTRICITY":0.00101004,"INCLINATION":51.88,"RA_OF_ASC_NODE":266.9829,"ARG_OF_PERICENTER":53.3421,"MEAN_ANOMALY":306.8492,"EPHEMERIS_TYPE":0,"NORAD_CAT_ID":69607,"ELEMENT_SET_NO":999,"REV_AT_EPOCH":543,"BSTAR":0.00036953534,"MEAN_MOTION_DOT":0.00012053,"MEAN_MOTION_DDOT":0},{"OBJECT_NAME":"KUIPER-00538","OBJECT_ID":"2026-140S","EPOCH":"2026-07-14T13:22:07.967424","CLASSIFICATION_TYPE":"U","MEAN_MOTION":15.37720478,"ECCENTRICITY":0.0006672,"INCLINATION":51.88,"RA_OF_ASC_NODE":266.4163,"ARG_OF_PERICENTER":340.5884,"MEAN_ANOMALY":19.4848,"EPHEMERIS_TYPE":0,"NORAD_CAT_ID":69608,"ELEMENT_SET_NO":999,"REV_AT_EPOCH":544,"BSTAR":0.00021793,"MEAN_MOTION_DOT":0.00007818,"MEAN_MOTION_DDOT":0},{"OBJECT_NAME":"KUIPER-00540","OBJECT_ID":"2026-140T","EPOCH":"2026-07-14T12:05:12.893280","CLASSIFICATION_TYPE":"U","MEAN_MOTION":15.36957918,"ECCENTRICITY":0.00066627,"INCLINATION":51.8813,"RA_OF_ASC_NODE":266.8078,"ARG_OF_PERICENTER":21.7928,"MEAN_ANOMALY":338.3341,"EPHEMERIS_TYPE":0,"NORAD_CAT_ID":69609,"ELEMENT_SET_NO":999,"REV_AT_EPOCH":543,"BSTAR":0.00026536165,"MEAN_MOTION_DOT":0.00009367,"MEAN_MOTION_DDOT":0},{"OBJECT_NAME":"KUIPER-00541","OBJECT_ID":"2026-140U","EPOCH":"2026-07-14T13:06:39.945024","CLASSIFICATION_TYPE":"U","MEAN_MOTION":15.38428649,"ECCENTRICITY":0.0007543,"INCLINATION":51.8805,"RA_OF_ASC_NODE":266.3511,"ARG_OF_PERICENTER":318.5864,"MEAN_ANOMALY":41.4551,"EPHEMERIS_TYPE":0,"NORAD_CAT_ID":69610,"ELEMENT_SET_NO":999,"REV_AT_EPOCH":544,"BSTAR":-0.00019967,"MEAN_MOTION_DOT":-0.00008088,"MEAN_MOTION_DDOT":0},{"OBJECT_NAME":"KUIPER-00542","OBJECT_ID":"2026-140V","EPOCH":"2026-07-14T13:04:51.996864","CLASSIFICATION_TYPE":"U","MEAN_MOTION":15.3828469,"ECCENTRICITY":0.0007885,"INCLINATION":51.878,"RA_OF_ASC_NODE":266.3297,"ARG_OF_PERICENTER":300.2753,"MEAN_ANOMALY":59.7453,"EPHEMERIS_TYPE":0,"NORAD_CAT_ID":69611,"ELEMENT_SET_NO":999,"REV_AT_EPOCH":544,"BSTAR":0.00038418,"MEAN_MOTION_DOT":0.00014367,"MEAN_MOTION_DDOT":0},{"OBJECT_NAME":"KUIPER-00543","OBJECT_ID":"2026-140W","EPOCH":"2026-07-14T12:11:42.457056","CLASSIFICATION_TYPE":"U","MEAN_MOTION":15.36830922,"ECCENTRICITY":0.00081602,"INCLINATION":51.8792,"RA_OF_ASC_NODE":266.8269,"ARG_OF_PERICENTER":32.6543,"MEAN_ANOMALY":327.4947,"EPHEMERIS_TYPE":0,"NORAD_CAT_ID":69612,"ELEMENT_SET_NO":999,"REV_AT_EPOCH":543,"BSTAR":0.00031527684,"MEAN_MOTION_DOT":0.00011162,"MEAN_MOTION_DDOT":0},{"OBJECT_NAME":"KUIPER-00544","OBJECT_ID":"2026-140X","EPOCH":"2026-07-14T11:37:41.603520","CLASSIFICATION_TYPE":"U","MEAN_MOTION":15.3816943,"ECCENTRICITY":0.00068095,"INCLINATION":51.8777,"RA_OF_ASC_NODE":266.675,"ARG_OF_PERICENTER":317.9853,"MEAN_ANOMALY":42.0611,"EPHEMERIS_TYPE":0,"NORAD_CAT_ID":69613,"ELEMENT_SET_NO":999,"REV_AT_EPOCH":543,"BSTAR":0.00039647082,"MEAN_MOTION_DOT":0.0001478,"MEAN_MOTION_DDOT":0},{"OBJECT_NAME":"KUIPER-00546","OBJECT_ID":"2026-140Y","EPOCH":"2026-07-14T17:20:46.426848","CLASSIFICATION_TYPE":"U","MEAN_MOTION":15.38166665,"ECCENTRICITY":0.00143371,"INCLINATION":51.8805,"RA_OF_ASC_NODE":265.2809,"ARG_OF_PERICENTER":257.3045,"MEAN_ANOMALY":102.634,"EPHEMERIS_TYPE":0,"NORAD_CAT_ID":69614,"ELEMENT_SET_NO":999,"REV_AT_EPOCH":547,"BSTAR":-0.00418374,"MEAN_MOTION_DOT":-0.00157507,"MEAN_MOTION_DDOT":0},{"OBJECT_NAME":"KUIPER-00547","OBJECT_ID":"2026-140Z","EPOCH":"2026-07-14T11:29:07.609056","CLASSIFICATION_TYPE":"U","MEAN_MOTION":15.37917453,"ECCENTRICITY":0.00109141,"INCLINATION":51.8805,"RA_OF_ASC_NODE":266.6446,"ARG_OF_PERICENTER":287.166,"MEAN_ANOMALY":72.8132,"EPHEMERIS_TYPE":0,"NORAD_CAT_ID":69615,"ELEMENT_SET_NO":999,"REV_AT_EPOCH":543,"BSTAR":0.00043980854,"MEAN_MOTION_DOT":0.00016324,"MEAN_MOTION_DDOT":0}]}
